[
    {
        "Altitude(m)": 607886.7125520759,
        "Argument of Periapsis(deg)": 0.0,
        "Eccentricity": 0.0,
        "Inclination(deg)": 60.0,
        "Latitude(deg)": 40.99850081616817,
        "Longitude(deg)": 19.97285735681968,
        "Mean Anomaly(deg)": 49.09089999999999,
        "RAAN(deg)": 90.0,
        "Satellite Name": "Test1 399",
        "Satellite Number": 399,
        "Semi-Major Axis(m)": 6980739.136638005,
        "Time(s)": 0
    },
    {
        "Altitude(m)": 607987.6270998808,
        "Argument of Periapsis(deg)": 0.00010418945913296404,
        "Eccentricity": 0.0,
        "Inclination(deg)": 60.0,
        "Latitude(deg)": 41.46359213011484,
        "Longitude(deg)": 20.477083657170006,
        "Mean Anomaly(deg)": 49.71100614546184,
        "RAAN(deg)": 89.99957995086027,
        "Satellite Name": "Test1 399",
        "Satellite Number": 399,
        "Semi-Major Axis(m)": 6980739.136638005,
        "Time(s)": 10
    }
]